SL-14 R/B               
1 21423U 91042B   26004.26931094  .00000724  00000+0  88539-4 0  9993
2 21423  82.4936 280.5988 0018571  92.4371 267.8970 14.81764548843534
ERS-1                   
1 21574U 91050A   26004.60712824  .00000616  00000+0  21168-3 0  9999
2 21574  98.7896  21.2333 0032538  33.9997 326.3266 14.39387546806511
ARIANE 40 R/B           
1 21610U 91050F   26004.60231267  .00000592  00000+0  18985-3 0  9993
2 21610  98.2131  59.2042 0002002 265.5949  94.5012 14.42836342809759
INTERCOSMOS 25          
1 21819U 91086A   26004.33975876  .00001934  00000+0  38538-3 0  9991
2 21819  82.6081 348.9040 1485927 255.6502  87.5597 12.11823726488898
SL-8 R/B                
1 21876U 92008B   26004.60797182  .00000136  00000+0  12428-3 0  9994
2 21876  82.9282 315.4377 0033849 315.4575 217.7355 13.75964509700606
SL-8 R/B                
1 21938U 92020B   26004.60853817  .00000200  00000+0  19060-3 0  9996
2 21938  82.9291 201.3350 0030093 115.6944 304.7111 13.75534432692321
USA 81                  
1 21949U 92023A   26004.52879012  .00000317  00000+0  11011-3 0  9994
2 21949  85.0090 168.4330 0001217 112.2288 247.9034 14.32337930 85602
COSMOS 2219             
1 22219U 92076A   26004.64409638  .00000312  00000+0  18842-3 0  9993
2 22219  71.0606 151.9533 0020174 295.2617  64.6415 14.14077537709327
SL-16 R/B               
1 22220U 92076B   26004.61364625 -.00000041  00000+0  32860-5 0  9996
2 22220  71.0011 323.3476 0013679 202.8251 329.9957 14.16845402712755
COSMOS 2221             
1 22236U 92080A   26004.42841296  .00003095  00000+0  27392-3 0  9994
2 22236  82.5050 340.6061 0015946  52.9737 307.2941 14.95879574771184
SL-16 R/B               
1 22285U 92093B   26004.64144392 -.00000115  00000+0 -34781-4 0  9992
2 22285  71.0210 138.7208 0003117   9.8467 350.2716 14.15434043704090
COSMOS 2228             
1 22286U 92094A   26004.62042756  .00003910  00000+0  33775-3 0  9998
2 22286  82.5199 298.6417 0018597 152.3602 207.8613 14.96863000766476
