CCSDS_OMM_VERS = 2.0
CREATION_DATE  = 
ORIGINATOR     = 

OBJECT_NAME    = SL-14 R/B
OBJECT_ID      = 1991-042B
CENTER_NAME    = EARTH
REF_FRAME      = TEME
TIME_SYSTEM    = UTC
MEAN_ELEMENT_THEORY = SGP/SGP4

EPOCH          = 2026-01-04T06:27:48.465216
MEAN_MOTION    = 14.81764548
ECCENTRICITY   = .0018571
INCLINATION    = 82.4936
RA_OF_ASC_NODE = 280.5988
ARG_OF_PERICENTER = 92.4371
MEAN_ANOMALY   = 267.8970

EPHEMERIS_TYPE = 0
CLASSIFICATION_TYPE = U
NORAD_CAT_ID   = 21423
ELEMENT_SET_NO = 999
REV_AT_EPOCH   = 84353
BSTAR          = .88539E-4
MEAN_MOTION_DOT = .724E-5
MEAN_MOTION_DDOT = 0

CCSDS_OMM_VERS = 2.0
CREATION_DATE  = 
ORIGINATOR     = 

OBJECT_NAME    = ERS-1
OBJECT_ID      = 1991-050A
CENTER_NAME    = EARTH
REF_FRAME      = TEME
TIME_SYSTEM    = UTC
MEAN_ELEMENT_THEORY = SGP/SGP4

EPOCH          = 2026-01-04T14:34:15.879936
MEAN_MOTION    = 14.39387546
ECCENTRICITY   = .00325384
INCLINATION    = 98.7896
RA_OF_ASC_NODE = 21.2333
ARG_OF_PERICENTER = 33.9997
MEAN_ANOMALY   = 326.3266

EPHEMERIS_TYPE = 0
CLASSIFICATION_TYPE = U
NORAD_CAT_ID   = 21574
ELEMENT_SET_NO = 999
REV_AT_EPOCH   = 80651
BSTAR          = .21168178E-3
MEAN_MOTION_DOT = .616E-5
MEAN_MOTION_DDOT = 0

CCSDS_OMM_VERS = 2.0
CREATION_DATE  = 
ORIGINATOR     = 

OBJECT_NAME    = ARIANE 40 R/B
OBJECT_ID      = 1991-050F
CENTER_NAME    = EARTH
REF_FRAME      = TEME
TIME_SYSTEM    = UTC
MEAN_ELEMENT_THEORY = SGP/SGP4

EPOCH          = 2026-01-04T14:27:19.814688
MEAN_MOTION    = 14.42836342
ECCENTRICITY   = .00020027
INCLINATION    = 98.2131
RA_OF_ASC_NODE = 59.2042
ARG_OF_PERICENTER = 265.5949
MEAN_ANOMALY   = 94.5012

EPHEMERIS_TYPE = 0
CLASSIFICATION_TYPE = U
NORAD_CAT_ID   = 21610
ELEMENT_SET_NO = 999
REV_AT_EPOCH   = 80975
BSTAR          = .18985468E-3
MEAN_MOTION_DOT = .592E-5
MEAN_MOTION_DDOT = 0

CCSDS_OMM_VERS = 2.0
CREATION_DATE  = 
ORIGINATOR     = 

OBJECT_NAME    = INTERCOSMOS 25
OBJECT_ID      = 1991-086A
CENTER_NAME    = EARTH
REF_FRAME      = TEME
TIME_SYSTEM    = UTC
MEAN_ELEMENT_THEORY = SGP/SGP4

EPOCH          = 2026-01-04T08:09:15.156864
MEAN_MOTION    = 12.11823726
ECCENTRICITY   = .14859271
INCLINATION    = 82.6081
RA_OF_ASC_NODE = 348.9040
ARG_OF_PERICENTER = 255.6502
MEAN_ANOMALY   = 87.5597

EPHEMERIS_TYPE = 0
CLASSIFICATION_TYPE = U
NORAD_CAT_ID   = 21819
ELEMENT_SET_NO = 999
REV_AT_EPOCH   = 48889
BSTAR          = .38537888E-3
MEAN_MOTION_DOT = .1934E-4
MEAN_MOTION_DDOT = 0

CCSDS_OMM_VERS = 2.0
CREATION_DATE  = 
ORIGINATOR     = 

OBJECT_NAME    = SL-8 R/B
OBJECT_ID      = 1992-008B
CENTER_NAME    = EARTH
REF_FRAME      = TEME
TIME_SYSTEM    = UTC
MEAN_ELEMENT_THEORY = SGP/SGP4

EPOCH          = 2026-01-04T14:35:28.765248
MEAN_MOTION    = 13.75964509
ECCENTRICITY   = .00338495
INCLINATION    = 82.9282
RA_OF_ASC_NODE = 315.4377
ARG_OF_PERICENTER = 315.4575
MEAN_ANOMALY   = 217.7355

EPHEMERIS_TYPE = 0
CLASSIFICATION_TYPE = U
NORAD_CAT_ID   = 21876
ELEMENT_SET_NO = 999
REV_AT_EPOCH   = 70060
BSTAR          = .12427665E-3
MEAN_MOTION_DOT = .136E-5
MEAN_MOTION_DDOT = 0

CCSDS_OMM_VERS = 2.0
CREATION_DATE  = 
ORIGINATOR     = 

OBJECT_NAME    = SL-8 R/B
OBJECT_ID      = 1992-020B
CENTER_NAME    = EARTH
REF_FRAME      = TEME
TIME_SYSTEM    = UTC
MEAN_ELEMENT_THEORY = SGP/SGP4

EPOCH          = 2026-01-04T14:36:17.697888
MEAN_MOTION    = 13.75534432
ECCENTRICITY   = .00300935
INCLINATION    = 82.9291
RA_OF_ASC_NODE = 201.3350
ARG_OF_PERICENTER = 115.6944
MEAN_ANOMALY   = 304.7111

EPHEMERIS_TYPE = 0
CLASSIFICATION_TYPE = U
NORAD_CAT_ID   = 21938
ELEMENT_SET_NO = 999
REV_AT_EPOCH   = 69232
BSTAR          = .19059532E-3
MEAN_MOTION_DOT = .2E-5
MEAN_MOTION_DDOT = 0

CCSDS_OMM_VERS = 2.0
CREATION_DATE  = 
ORIGINATOR     = 

OBJECT_NAME    = USA 81
OBJECT_ID      = 1992-023A
CENTER_NAME    = EARTH
REF_FRAME      = TEME
TIME_SYSTEM    = UTC
MEAN_ELEMENT_THEORY = SGP/SGP4

EPOCH          = 2026-01-04T12:41:27.466368
MEAN_MOTION    = 14.32337930
ECCENTRICITY   = .00012176
INCLINATION    = 85.0090
RA_OF_ASC_NODE = 168.4330
ARG_OF_PERICENTER = 112.2288
MEAN_ANOMALY   = 247.9034

EPHEMERIS_TYPE = 0
CLASSIFICATION_TYPE = U
NORAD_CAT_ID   = 21949
ELEMENT_SET_NO = 999
REV_AT_EPOCH   = 8560
BSTAR          = .11010817E-3
MEAN_MOTION_DOT = .317E-5
MEAN_MOTION_DDOT = 0

CCSDS_OMM_VERS = 2.0
CREATION_DATE  = 
ORIGINATOR     = 

OBJECT_NAME    = COSMOS 2219
OBJECT_ID      = 1992-076A
CENTER_NAME    = EARTH
REF_FRAME      = TEME
TIME_SYSTEM    = UTC
MEAN_ELEMENT_THEORY = SGP/SGP4

EPOCH          = 2026-01-04T15:27:29.927232
MEAN_MOTION    = 14.14077537
ECCENTRICITY   = .00201744
INCLINATION    = 71.0606
RA_OF_ASC_NODE = 151.9533
ARG_OF_PERICENTER = 295.2617
MEAN_ANOMALY   = 64.6415

EPHEMERIS_TYPE = 0
CLASSIFICATION_TYPE = U
NORAD_CAT_ID   = 22219
ELEMENT_SET_NO = 999
REV_AT_EPOCH   = 70932
BSTAR          = .18842029E-3
MEAN_MOTION_DOT = .312E-5
MEAN_MOTION_DDOT = 0

CCSDS_OMM_VERS = 2.0
CREATION_DATE  = 
ORIGINATOR     = 

OBJECT_NAME    = SL-16 R/B
OBJECT_ID      = 1992-076B
CENTER_NAME    = EARTH
REF_FRAME      = TEME
TIME_SYSTEM    = UTC
MEAN_ELEMENT_THEORY = SGP/SGP4

EPOCH          = 2026-01-04T14:43:39.036000
MEAN_MOTION    = 14.16845402
ECCENTRICITY   = .00136791
INCLINATION    = 71.0011
RA_OF_ASC_NODE = 323.3476
ARG_OF_PERICENTER = 202.8251
MEAN_ANOMALY   = 329.9957

EPHEMERIS_TYPE = 0
CLASSIFICATION_TYPE = U
NORAD_CAT_ID   = 22220
ELEMENT_SET_NO = 999
REV_AT_EPOCH   = 71275
BSTAR          = .3286026E-5
MEAN_MOTION_DOT = -.41E-6
MEAN_MOTION_DDOT = 0

CCSDS_OMM_VERS = 2.0
CREATION_DATE  = 
ORIGINATOR     = 

OBJECT_NAME    = COSMOS 2221
OBJECT_ID      = 1992-080A
CENTER_NAME    = EARTH
REF_FRAME      = TEME
TIME_SYSTEM    = UTC
MEAN_ELEMENT_THEORY = SGP/SGP4

EPOCH          = 2026-01-04T10:16:54.879744
MEAN_MOTION    = 14.95879574
ECCENTRICITY   = .00159461
INCLINATION    = 82.5050
RA_OF_ASC_NODE = 340.6061
ARG_OF_PERICENTER = 52.9737
MEAN_ANOMALY   = 307.2941

EPHEMERIS_TYPE = 0
CLASSIFICATION_TYPE = U
NORAD_CAT_ID   = 22236
ELEMENT_SET_NO = 999
REV_AT_EPOCH   = 77118
BSTAR          = .27391747E-3
MEAN_MOTION_DOT = .3095E-4
MEAN_MOTION_DDOT = 0

CCSDS_OMM_VERS = 2.0
CREATION_DATE  = 
ORIGINATOR     = 

OBJECT_NAME    = SL-16 R/B
OBJECT_ID      = 1992-093B
CENTER_NAME    = EARTH
REF_FRAME      = TEME
TIME_SYSTEM    = UTC
MEAN_ELEMENT_THEORY = SGP/SGP4

EPOCH          = 2026-01-04T15:23:40.754688
MEAN_MOTION    = 14.15434043
ECCENTRICITY   = .00031172
INCLINATION    = 71.0210
RA_OF_ASC_NODE = 138.7208
ARG_OF_PERICENTER = 9.8467
MEAN_ANOMALY   = 350.2716

EPHEMERIS_TYPE = 0
CLASSIFICATION_TYPE = U
NORAD_CAT_ID   = 22285
ELEMENT_SET_NO = 999
REV_AT_EPOCH   = 70409
BSTAR          = -.34780593E-4
MEAN_MOTION_DOT = -.115E-5
MEAN_MOTION_DDOT = 0

CCSDS_OMM_VERS = 2.0
CREATION_DATE  = 
ORIGINATOR     = 

OBJECT_NAME    = COSMOS 2228
OBJECT_ID      = 1992-094A
CENTER_NAME    = EARTH
REF_FRAME      = TEME
TIME_SYSTEM    = UTC
MEAN_ELEMENT_THEORY = SGP/SGP4

EPOCH          = 2026-01-04T14:53:24.941184
MEAN_MOTION    = 14.96863000
ECCENTRICITY   = .0018597
INCLINATION    = 82.5199
RA_OF_ASC_NODE = 298.6417
ARG_OF_PERICENTER = 152.3602
MEAN_ANOMALY   = 207.8613

EPHEMERIS_TYPE = 0
CLASSIFICATION_TYPE = U
NORAD_CAT_ID   = 22286
ELEMENT_SET_NO = 999
REV_AT_EPOCH   = 76647
BSTAR          = .33774974E-3
MEAN_MOTION_DOT = .391E-4
MEAN_MOTION_DDOT = 0

